NORAD_CAT_ID,OBJECT_NAME,OBJECT_TYPE,EPOCH,MEAN_MOTION,ECCENTRICITY,INCLINATION,RA_OF_ASC_NODE,ARG_OF_PERICENTER,MEAN_ANOMALY,BSTAR,MEAN_MOTION_DOT,MEAN_MOTION_DDOT,TLE_LINE0,TLE_LINE1,TLE_LINE2,SEMIMAJOR_AXIS,PERIOD,APOGEE,PERIGEE,DECAYED
56803.0,STARLINK-6029,PAYLOAD,2023-09-14 22:00:00,15.5121912,0.0003433,69.9986,113.9023,269.825,160.0478,0.00020577,0.00011938,0.0,0 STARLINK-6029,1 56803U 23078AN  23257.91667824  .00011938  00000-0  20577-3 0  9990,2 56803  69.9986 113.9023 0003433 269.8250 160.0478 15.51219120  6037,6791.302,92.83,415.499,410.836,0.0
56803.0,STARLINK-6029,PAYLOAD,2023-09-15 12:00:00,15.51179192,0.0003302,69.9991,112.3073,265.064,181.4205,0.0014702,0.00087008,0.0,0 STARLINK-6029,1 56803U 23078AN  23258.50001157  .00087008  00000-0  14702-2 0  9990,2 56803  69.9991 112.3073 0003302 265.0640 181.4205 15.51179192 17128,6791.419,92.833,415.527,411.042,0.0
56803.0,STARLINK-6029,PAYLOAD,2023-09-15 14:00:01,15.51214695,0.0003285,69.9993,112.0796,264.2798,287.4157,0.00062514,0.00036713,0.0,0 STARLINK-6029,1 56803U 23078AN  23258.58334491  .00036713  00000-0  62514-3 0  9990,2 56803  69.9993 112.0796 0003285 264.2798 287.4157 15.51214695  6055,6791.315,92.83,415.411,410.949,0.0
56803.0,STARLINK-6029,PAYLOAD,2023-09-15 20:00:01,15.51240945,0.0003346,69.9993,111.3959,269.1168,238.2613,-0.00064139,-0.00037684,0.0,0 STARLINK-6029,1 56803U 23078AN  23258.83334491 -.00037684  00000-0 -64139-3 0  9993,2 56803  69.9993 111.3959 0003346 269.1168 238.2613 15.51240945 17174,6791.239,92.829,415.376,410.831,0.0
56803.0,STARLINK-6029,PAYLOAD,2023-09-16 04:00:00,15.51425983,0.0003192,69.9987,110.484,269.0496,299.2139,-0.011623,-0.00635317,0.0,0 STARLINK-6029,1 56803U 23078AN  23259.16667824 -.00635317  00000-0 -11623-1 0  9994,2 56803  69.9987 110.4840 0003192 269.0496 299.2139 15.51425983 17221,6790.699,92.818,414.731,410.396,0.0
56803.0,STARLINK-6029,PAYLOAD,2023-09-16 12:00:00,15.50952124,0.0003318,69.9988,109.5729,262.8324,6.3284,-0.016158,-0.00858091,0.0,0 STARLINK-6029,1 56803U 23078AN  23259.50001157 -.00858091  00000-0 -16158-1 0  9997,2 56803  69.9988 109.5729 0003318 262.8324   6.3284 15.50952124 17283,6792.082,92.846,416.201,411.693,0.0
56803.0,STARLINK-6029,PAYLOAD,2023-09-16 14:00:01,15.50814495,0.0003403,69.9991,109.3451,264.5196,109.7594,-0.016929,-0.00891417,0.0,0 STARLINK-6029,1 56803U 23078AN  23259.58334491 -.00891417  00000-0 -16929-1 0  9990,2 56803  69.9991 109.3451 0003403 264.5196 109.7594 15.50814495  5487,6792.484,92.854,416.66,412.037,0.0
56803.0,STARLINK-6029,PAYLOAD,2023-09-16 20:00:01,15.50330749,0.0003469,69.9991,108.6621,268.2404,61.1396,-0.017713,-0.00927095,0.0,0 STARLINK-6029,1 56803U 23078AN  23259.83334491 -.00927095  00000-0 -17713-1 0  9992,2 56803  69.9991 108.6621 0003469 268.2404  61.1396 15.50330749 17336,6793.897,92.883,418.118,413.405,0.0
56803.0,STARLINK-6029,PAYLOAD,2023-09-17 14:00:01,15.48861681,0.0003279,69.9991,106.6166,263.5131,288.5005,-0.018276,-0.00897311,0.0,0 STARLINK-6029,1 56803U 23078AN  23260.58334491 -.00897311  00000-0 -18276-1 0  9998,2 56803  69.9991 106.6166 0003279 263.5131 288.5005 15.48861681  5646,6798.192,92.972,422.286,417.828,0.0
56803.0,STARLINK-6029,PAYLOAD,2023-09-17 20:00:01,15.48367717,0.0003339,69.9987,105.9357,270.3709,234.9866,-0.018807,-0.00919062,0.0,0 STARLINK-6029,1 56803U 23078AN  23260.83334491 -.00919062  00000-0 -18807-1 0  9994,2 56803  69.9987 105.9357 0003339 270.3709 234.9866 15.48367717 17485,6799.638,93.001,423.773,419.232,0.0
56803.0,STARLINK-6029,PAYLOAD,2023-09-18 14:00:01,15.46906192,0.0003525,69.9993,103.8963,265.4902,97.2164,-0.0196,-0.00910946,0.0,0 STARLINK-6029,1 56803U 23078AN  23261.58334491 -.00910946  00000-0 -19600-1 0  9991,2 56803  69.9993 103.8963 0003525 265.4902  97.2164 15.46906192  5807,6803.92,93.089,428.183,423.386,0.0
56803.0,STARLINK-6029,PAYLOAD,2023-09-18 20:00:01,15.46411827,0.0003499,69.9991,103.2174,268.8968,45.3938,-0.020165,-0.00920474,0.0,0 STARLINK-6029,1 56803U 23078AN  23261.83334491 -.00920474  00000-0 -20165-1 0  9994,2 56803  69.9991 103.2174 0003499 268.8968  45.3938 15.46411827 17646,6805.37,93.119,429.616,424.854,0.0
56803.0,STARLINK-6029,PAYLOAD,2023-09-18 22:00:00,15.46240382,0.0003487,69.9992,102.9911,272.3125,145.7398,-0.019878,-0.00903434,0.0,0 STARLINK-6029,1 56803U 23078AN  23261.91667824 -.00903434  00000-0 -19878-1 0  9998,2 56803  69.9992 102.9911 0003487 272.3125 145.7398 15.46240382  5855,6805.873,93.129,430.111,425.365,0.0
56803.0,STARLINK-6029,PAYLOAD,2023-09-19 20:00:01,15.44453833,0.0003329,69.9994,100.5068,270.73,205.4541,-0.0215,-0.00917774,0.0,0 STARLINK-6029,1 56803U 23078AN  23262.83334491 -.00917774  00000-0 -21500-1 0  9998,2 56803  69.9994 100.5068 0003329 270.7300 205.4541 15.44453833 17791,6811.12,93.237,435.253,430.718,0.0
56803.0,STARLINK-6029,PAYLOAD,2023-09-20 14:00:01,15.43000262,0.000347,69.9997,98.4792,263.9944,58.9754,-0.022689,-0.00921622,0.0,0 STARLINK-6029,1 56803U 23078AN  23263.58334491 -.00921622  00000-0 -22689-1 0  9997,2 56803  69.9997  98.4792 0003470 263.9944  58.9754 15.43000262  5919,6815.397,93.325,439.627,434.897,0.0
56803.0,STARLINK-6029,PAYLOAD,2023-09-20 20:00:01,15.42489664,0.0003358,69.9995,97.8045,268.2497,2.7891,-0.022617,-0.00904444,0.0,0 STARLINK-6029,1 56803U 23078AN  23263.83334491 -.00904444  00000-0 -22617-1 0  9999,2 56803  69.9995  97.8045 0003358 268.2497   2.7891 15.42489664 17959,6816.901,93.356,441.055,436.477,0.0
56803.0,STARLINK-6029,PAYLOAD,2023-09-20 22:00:00,15.42318389,0.0003435,69.9996,97.5796,271.5367,102.09,-0.022245,-0.00886007,0.0,0 STARLINK-6029,1 56803U 23078AN  23263.91667824 -.00886007  00000-0 -22245-1 0  9998,2 56803  69.9996  97.5796 0003435 271.5367 102.0900 15.42318389  5967,6817.406,93.366,441.613,436.929,0.0
56803.0,STARLINK-6029,PAYLOAD,2023-09-21 12:00:00,15.41181521,0.0003454,69.9998,96.0077,265.4854,104.8698,-0.023029,-0.00883224,0.0,0 STARLINK-6029,1 56803U 23078AN  23264.50001157 -.00883224  00000-0 -23029-1 0  9994,2 56803  69.9998  96.0077 0003454 265.4854 104.8698 15.41181521 18052,6820.758,93.435,444.979,440.267,0.0
56803.0,STARLINK-6029,PAYLOAD,2023-09-21 14:00:01,15.41047679,0.0003306,69.9999,95.7832,266.8252,205.7167,-0.024498,-0.0093114,0.0,0 STARLINK-6029,1 56803U 23078AN  23264.58334491 -.00931140  00000-0 -24498-1 0  9994,2 56803  69.9999  95.7832 0003306 266.8252 205.7167 15.41047679  6011,6821.153,93.443,445.273,440.763,0.0
56803.0,STARLINK-6029,PAYLOAD,2023-09-21 20:00:01,15.40534282,0.0003467,69.9997,95.1106,271.8248,147.0252,-0.024218,-0.00907013,0.0,0 STARLINK-6029,1 56803U 23078AN  23264.83334491 -.00907013  00000-0 -24218-1 0  9994,2 56803  69.9997  95.1106 0003467 271.8248 147.0252 15.40534282 18102,6822.668,93.474,446.899,442.168,0.0
56803.0,STARLINK-6029,PAYLOAD,2023-09-21 22:00:01,15.4035934,0.0003312,69.9997,94.8863,273.0521,247.8646,-0.023629,-0.00881874,0.0,0 STARLINK-6029,1 56803U 23078AN  23264.91668981 -.00881874  00000-0 -23629-1 0  9998,2 56803  69.9997  94.8863 0003312 273.0521 247.8646 15.40359340  5703,6823.185,93.485,447.31,442.79,0.0
56803.0,STARLINK-6029,PAYLOAD,2023-09-22 12:00:00,15.39231544,0.0003345,70.0,93.3188,266.381,247.0892,-0.024865,-0.00893131,0.0,0 STARLINK-6029,1 56803U 23078AN  23265.50001157 -.00893131  00000-0 -24865-1 0  9992,2 56803  70.0000  93.3188 0003345 266.3810 247.0892 15.39231544 18204,6826.517,93.553,450.666,446.099,0.0
56803.0,STARLINK-6029,PAYLOAD,2023-09-22 14:00:01,15.39094548,0.0003451,70.0001,93.0951,264.5083,350.5631,-0.026238,-0.00934574,0.0,0 STARLINK-6029,1 56803U 23078AN  23265.58334491 -.00934574  00000-0 -26238-1 0  9993,2 56803  70.0001  93.0951 0003451 264.5083 350.5631 15.39094548  5815,6826.923,93.562,451.144,446.432,0.0
56803.0,STARLINK-6029,PAYLOAD,2023-09-22 22:00:00,15.38401715,0.0003488,70.0,92.2007,271.403,29.6343,-0.025185,-0.0088134,0.0,0 STARLINK-6029,1 56803U 23078AN  23265.91667824 -.00881340  00000-0 -25185-1 0  9991,2 56803  70.0000  92.2007 0003488 271.4030  29.6343 15.38401715  5862,6828.972,93.604,453.219,448.455,0.0
56803.0,STARLINK-6029,PAYLOAD,2023-09-23 04:00:00,15.37955113,0.0003372,69.9996,91.5305,269.0711,335.8999,-0.028168,-0.00963843,0.0,0 STARLINK-6029,1 56803U 23078AN  23266.16667824 -.00963843  00000-0 -28168-1 0  9992,2 56803  69.9996  91.5305 0003372 269.0711 335.8999 15.37955113 18315,6830.294,93.631,454.462,449.856,0.0
56803.0,STARLINK-6029,PAYLOAD,2023-09-23 12:00:00,15.37277288,0.0003469,69.9999,90.6376,264.1951,25.352,-0.026611,-0.00896434,0.0,0 STARLINK-6029,1 56803U 23078AN  23266.50001157 -.00896434  00000-0 -26611-1 0  9993,2 56803  69.9999  90.6376 0003469 264.1951  25.3520 15.37277288 18361,6832.302,93.672,456.537,451.797,0.0
56803.0,STARLINK-6029,PAYLOAD,2023-09-23 14:00:01,15.37139619,0.0003541,70.0001,90.4146,266.984,123.5788,-0.02814,-0.00939848,0.0,0 STARLINK-6029,1 56803U 23078AN  23266.58334491 -.00939848  00000-0 -28140-1 0  9997,2 56803  70.0001  90.4146 0003541 266.9840 123.5788 15.37139619  5974,6832.71,93.68,456.994,452.155,0.0
56803.0,STARLINK-6029,PAYLOAD,2023-09-24 04:00:01,15.35993298,0.0003441,69.9995,88.8545,269.9137,106.5079,-0.029771,-0.00956569,0.0,0 STARLINK-6029,1 56803U 23078AN  23267.16668981 -.00956569  00000-0 -29771-1 0  9996,2 56803  69.9995  88.8545 0003441 269.9137 106.5079 15.35993298 18469,6836.109,93.75,460.326,455.621,0.0
56803.0,STARLINK-6029,PAYLOAD,2023-09-24 12:00:00,15.35321064,0.0003395,69.9997,87.9644,266.4804,152.1047,-0.028427,-0.00898787,0.0,0 STARLINK-6029,1 56803U 23078AN  23267.50001157 -.00898787  00000-0 -28427-1 0  9994,2 56803  69.9997  87.9644 0003395 266.4804 152.1047 15.35321064 18516,6838.104,93.791,462.291,457.647,0.0
56803.0,STARLINK-6029,PAYLOAD,2023-09-24 14:00:01,15.35180499,0.000331,69.9999,87.7419,266.4028,252.6126,-0.029957,-0.00939242,0.0,0 STARLINK-6029,1 56803U 23078AN  23267.58334491 -.00939242  00000-0 -29957-1 0  9993,2 56803  69.9999  87.7419 0003310 266.4028 252.6126 15.35180499  5965,6838.521,93.8,462.65,458.123,0.0
